FALCONSAT-10            
1 58291U 23174AM  26068.70247784  .00006748  00000+0  25969-3 0  9991
2 58291  97.3865 145.7938 0008932 169.5942 190.5483 15.26670596129582
STARLINK-31947          
1 59835U 24097A   26067.99842339 -.00000671  00000+0 -14865-4 0  9993
2 59835  42.9964 278.0507 0001067 272.1636  87.9094 15.27562328101815
